STARLINK-31054          
1 58619U 23203B   26068.06150238  .00000057  00000+0  11595-4 0  9992
2 58619  43.0061  70.7851 0001116 265.1004  94.9720 15.27568374123465
FLOCK 4G-15             
1 62678U 25009BX  26068.71779869  .00012647  00000+0  47575-3 0  9991
2 62678  97.4054 151.1927 0003699 316.8208  43.2740 15.27266411121358
