[{"OBJECT_NAME":"STARLINK-31054","OBJECT_ID":"2023-203B","EPOCH":"2026-03-09T01:28:33.805632","MEAN_MOTION":15.27568374,"ECCENTRICITY":0.00011168,"INCLINATION":43.0061,"RA_OF_ASC_NODE":70.7851,"ARG_OF_PERICENTER":265.1004,"MEAN_ANOMALY":94.972,"EPHEMERIS_TYPE":0,"CLASSIFICATION_TYPE":"U","NORAD_CAT_ID":58619,"ELEMENT_SET_NO":999,"REV_AT_EPOCH":12346,"BSTAR":1.1594819e-5,"MEAN_MOTION_DOT":5.7e-7,"MEAN_MOTION_DDOT":0},{"OBJECT_NAME":"FLOCK 4G-15","OBJECT_ID":"2025-009BX","EPOCH":"2026-03-09T17:13:37.807680","MEAN_MOTION":15.27266411,"ECCENTRICITY":0.00036988,"INCLINATION":97.4054,"RA_OF_ASC_NODE":151.1927,"ARG_OF_PERICENTER":316.8208,"MEAN_ANOMALY":43.274,"EPHEMERIS_TYPE":0,"CLASSIFICATION_TYPE":"U","NORAD_CAT_ID":62678,"ELEMENT_SET_NO":999,"REV_AT_EPOCH":12135,"BSTAR":0.00047574812,"MEAN_MOTION_DOT":0.00012647,"MEAN_MOTION_DDOT":0}]
